{
  "type": "Feature",
  "properties": {
    "name": "Laugavegur",
    "distance": "54km"
  },
  "geometry": {
    "type": "LineString",
    "coordinates": [
      [
        -19.5123805,
        63.6842955
      ],
      [
        -19.5168271,
        63.6894909
      ],
      [
        -19.5132948,
        63.6904863
      ],
      [
        -19.5114963,
        63.6918858
      ],
      [
        -19.5107975,
        63.6944805
      ],
      [
        -19.5143212,
        63.6947008
      ],
      [
        -19.5153843,
        63.6958455
      ],
      [
        -19.5134091,
        63.6962453
      ],
      [
        -19.5129863,
        63.6979519
      ],
      [
        -19.5116221,
        63.6986606
      ],
      [
        -19.5032275,
        63.7002697
      ],
      [
        -19.4964308,
        63.7031006
      ],
      [
        -19.488861,
        63.7047652
      ],
      [
        -19.4897108,
        63.705963
      ],
      [
        -19.489289,
        63.7064333
      ],
      [
        -19.4814336,
        63.7082323
      ],
      [
        -19.4833039,
        63.7095011
      ],
      [
        -19.4840196,
        63.7105539
      ],
      [
        -19.4835105,
        63.7110975
      ],
      [
        -19.4871336,
        63.7126075
      ],
      [
        -19.4809592,
        63.7166092
      ],
      [
        -19.4735292,
        63.7189921
      ],
      [
        -19.4529462,
        63.7223975
      ],
      [
        -19.4353144,
        63.7266129
      ],
      [
        -19.4329423,
        63.7284126
      ],
      [
        -19.4325014,
        63.7299897
      ],
      [
        -19.425908,
        63.7316514
      ],
      [
        -19.4256381,
        63.7322347
      ],
      [
        -19.4203413,
        63.7340418
      ],
      [
        -19.4198638,
        63.7346859
      ],
      [
        -19.4176107,
        63.7348768
      ],
      [
        -19.4177663,
        63.736926
      ],
      [
        -19.4163957,
        63.7386926
      ],
      [
        -19.4146282,
        63.7397281
      ],
      [
        -19.4138718,
        63.7442321
      ],
      [
        -19.4089462,
        63.7466782
      ],
      [
        -19.4015282,
        63.7485151
      ],
      [
        -19.4009768,
        63.7499901
      ],
      [
        -19.3998009,
        63.7509014
      ],
      [
        -19.3912259,
        63.7559556
      ],
      [
        -19.3801144,
        63.7528183
      ],
      [
        -19.3742046,
        63.7526896
      ],
      [
        -19.3608793,
        63.7537804
      ],
      [
        -19.3628958,
        63.7561906
      ],
      [
        -19.3622273,
        63.7575621
      ],
      [
        -19.3589073,
        63.7591416
      ],
      [
        -19.3586264,
        63.7603453
      ],
      [
        -19.3591524,
        63.7613891
      ],
      [
        -19.3628843,
        63.7641798
      ],
      [
        -19.3728169,
        63.7660713
      ],
      [
        -19.3709942,
        63.773333
      ],
      [
        -19.3626931,
        63.7778574
      ],
      [
        -19.3411732,
        63.7852587
      ],
      [
        -19.3316191,
        63.7879723
      ],
      [
        -19.3233705,
        63.7887896
      ],
      [
        -19.316445,
        63.7916839
      ],
      [
        -19.3123684,
        63.7924428
      ],
      [
        -19.2900734,
        63.803151
      ],
      [
        -19.2818075,
        63.8034471
      ],
      [
        -19.2777552,
        63.8059167
      ],
      [
        -19.2683542,
        63.808224
      ],
      [
        -19.2650916,
        63.8105216
      ],
      [
        -19.2213155,
        63.8215765
      ],
      [
        -19.2120258,
        63.8267909
      ],
      [
        -19.2079598,
        63.8331265
      ],
      [
        -19.2088517,
        63.8342023
      ],
      [
        -19.2124154,
        63.8354069
      ],
      [
        -19.2137128,
        63.8381196
      ],
      [
        -19.2161774,
        63.8399004
      ],
      [
        -19.2172678,
        63.8422312
      ],
      [
        -19.2173581,
        63.8430211
      ],
      [
        -19.216756,
        63.8433024
      ],
      [
        -19.2186444,
        63.8441059
      ],
      [
        -19.2183446,
        63.8453407
      ],
      [
        -19.2154439,
        63.846762
      ],
      [
        -19.2149036,
        63.8480612
      ],
      [
        -19.2158715,
        63.8492798
      ],
      [
        -19.2197351,
        63.8510171
      ],
      [
        -19.2178874,
        63.8529181
      ],
      [
        -19.217131,
        63.8549949
      ],
      [
        -19.2195659,
        63.8571572
      ],
      [
        -19.221371,
        63.8570772
      ],
      [
        -19.218919,
        63.8670319
      ],
      [
        -19.2124614,
        63.8703114
      ],
      [
        -19.2054069,
        63.8719998
      ],
      [
        -19.2018194,
        63.8738258
      ],
      [
        -19.2015063,
        63.8750471
      ],
      [
        -19.199668,
        63.8761605
      ],
      [
        -19.1977173,
        63.8785887
      ],
      [
        -19.1976157,
        63.8802969
      ],
      [
        -19.1984927,
        63.8812848
      ],
      [
        -19.1876279,
        63.8842309
      ],
      [
        -19.1841238,
        63.8861074
      ],
      [
        -19.1850099,
        63.8868348
      ],
      [
        -19.1839017,
        63.8883747
      ],
      [
        -19.1716756,
        63.8901815
      ],
      [
        -19.1654851,
        63.8927355
      ],
      [
        -19.16518,
        63.8937552
      ],
      [
        -19.1666893,
        63.8937599
      ],
      [
        -19.16785,
        63.8946109
      ],
      [
        -19.167476,
        63.8952894
      ],
      [
        -19.1681949,
        63.8972101
      ],
      [
        -19.1660462,
        63.8978842
      ],
      [
        -19.1663967,
        63.8982589
      ],
      [
        -19.1655166,
        63.8984591
      ],
      [
        -19.1648898,
        63.8996936
      ],
      [
        -19.1619162,
        63.9008087
      ],
      [
        -19.159508,
        63.9028711
      ],
      [
        -19.1520778,
        63.9055961
      ],
      [
        -19.1516619,
        63.9068838
      ],
      [
        -19.1529011,
        63.9080938
      ],
      [
        -19.1524685,
        63.9091162
      ],
      [
        -19.1530475,
        63.9108387
      ],
      [
        -19.1576396,
        63.913205
      ],
      [
        -19.1594062,
        63.9151457
      ],
      [
        -19.1602168,
        63.9177831
      ],
      [
        -19.1584944,
        63.9201235
      ],
      [
        -19.1566148,
        63.9208506
      ],
      [
        -19.1570385,
        63.921241
      ],
      [
        -19.1565295,
        63.9215876
      ],
      [
        -19.1575176,
        63.9216611
      ],
      [
        -19.1585611,
        63.9247756
      ],
      [
        -19.1596666,
        63.9249993
      ],
      [
        -19.166386,
        63.9354739
      ],
      [
        -19.1634849,
        63.9420974
      ],
      [
        -19.1543064,
        63.9493432
      ],
      [
        -19.1479328,
        63.9512965
      ],
      [
        -19.144475,
        63.9531015
      ],
      [
        -19.141644,
        63.9573846
      ],
      [
        -19.1386013,
        63.9601918
      ],
      [
        -19.1343208,
        63.9626745
      ],
      [
        -19.1309571,
        63.9631884
      ],
      [
        -19.1294673,
        63.9642834
      ],
      [
        -19.1273557,
        63.9647667
      ],
      [
        -19.1203058,
        63.9637701
      ],
      [
        -19.1166386,
        63.9642754
      ],
      [
        -19.1135464,
        63.9674016
      ],
      [
        -19.1119604,
        63.9708683
      ],
      [
        -19.1075495,
        63.9747426
      ],
      [
        -19.1066157,
        63.9762852
      ],
      [
        -19.0954268,
        63.9791656
      ],
      [
        -19.0889962,
        63.981753
      ],
      [
        -19.0857274,
        63.9887898
      ],
      [
        -19.0857348,
        63.9899342
      ],
      [
        -19.0842052,
        63.9906083
      ],
      [
        -19.0741283,
        63.9909397
      ],
      [
        -19.0712574,
        63.9903775
      ],
      [
        -19.0653854,
        63.9906058
      ],
      [
        -19.0649915,
        63.9910545
      ]
    ]
  }
}